satname,norad_id,inclination_deg,eccentricity,mean_motion_rev_per_day,perigee_km,apogee_km,l1,l2
STARLINK-1185,45087,53.0557,0.0001312,15.06394295,546.3204349719481,548.1376510216296,1 45087U 20006AV  25331.30402718  .00000283  00000+0  37910-4 0  9997,2 45087  53.0557 346.2448 0001312  91.5755 268.5384 15.06394295321591
STARLINK-1183,45088,53.054,0.0001389,15.06394614,546.2661320941634,548.189998509305,1 45088U 20006AW  25331.19344947 -.00000469  00000+0 -12582-4 0  9990,2 45088  53.0540 346.7424 0001389  93.0696 267.0452 15.06394614321571
STARLINK-1142,45093,53.0288,0.000816,15.74756163,339.8387923442215,350.8114825525372,1 45093U 20006BB  25331.33336806  .00383252  00000+0  24402-2 0  9991,2 45093  53.0288 267.6483 0008160 110.9685  51.5993 15.74756163  6014
STARLINK-1152,45096,53.0464,0.0004007,15.26691972,482.95911689421246,488.4598034473929,1 45096U 20006BE  25331.19404688  .00067405  00000+0  25232-2 0  9993,2 45096  53.0464 325.3878 0004007 319.6846  40.3854 15.26691972321875
STARLINK-1184,45098,53.0577,0.0001613,15.06396551,546.1050682192481,548.3391890741505,1 45098U 20006BG  25331.27453692 -.00000676  00000+0 -26515-4 0  9999,2 45098  53.0577 346.3780 0001613 110.0053 250.1110 15.06396551321587
STARLINK-1193,45100,53.0553,0.0001324,15.06391237,546.3214956963711,548.1553351063703,1 45100U 20006BJ  25331.27085453 -.00000982  00000+0 -47025-4 0  9998,2 45100  53.0553 346.3947 0001324  88.8051 271.3089 15.06391237321585
STARLINK-1143,45179,53.0509,0.000579,15.44405873,429.1806360383425,437.06807668901274,1 45179U 20012B   25331.00005786  .00013882  00000+0  30408-3 0  9990,2 45179  53.0509 104.5584 0005790 142.5332 113.0237 15.44405873  5900
STARLINK-1202,45183,53.0537,0.0001375,15.06387529,546.2975393385623,548.2020207030673,1 45183U 20012F   25330.73640185  .00000335  00000+0  41396-4 0  9990,2 45183  53.0537 148.7970 0001375  92.3467 267.7680 15.06387529319329
STARLINK-1216,45185,53.0535,0.0001422,15.06394578,546.2433887092338,548.2129625651851,1 45185U 20012H   25330.79536742 -.00000777  00000+0 -33247-4 0  9999,2 45185  53.0535 148.5289 0001422  91.5902 268.5250 15.06394578319276
STARLINK-1225,45187,53.0536,0.0001198,15.06396311,546.3932061033056,548.0525223267714,1 45187U 20012K   25330.81379831  .00000483  00000+0  51335-4 0  9998,2 45187  53.0536 148.4458 0001198  89.3508 270.7618 15.06396311319329
STARLINK-1230,45189,53.0533,0.0001405,15.06398623,546.2427661828242,548.188790313513,1 45189U 20012M   25330.81748653  .00001855  00000+0  14343-3 0  9993,2 45189  53.0533 148.4324 0001405  88.9535 271.1615 15.06398623316558
STARLINK-1234,45190,53.0512,0.0002794,15.40348173,443.1745252839173,446.9873394645283,1 45190U 20012N   25330.66740972  .00098678  00000+0  23869-2 0  9995,2 45190  53.0512 100.2865 0002794 262.5373  97.5313 15.40348173319893
STARLINK-1269,45197,53.0528,0.0001328,15.06393086,546.3130593309361,548.1524375361205,1 45197U 20012V   25330.76219546  .00002027  00000+0  15497-3 0  9993,2 45197  53.0528 148.6794 0001328  90.6386 269.4755 15.06393086319299
STARLINK-1154,45198,53.0534,8.75e-05,15.06393445,546.6256783853223,547.8376178987473,1 45198U 20012W   25330.75298261 -.00000057  00000+0  15085-4 0  9990,2 45198  53.0534 128.7197 0000875  57.9519 302.1555 15.06393445319543
STARLINK-1199,45201,53.0539,0.0001328,15.06397792,546.298637961353,548.138012335713,1 45201U 20012Z   25330.76403702  .00000537  00000+0  54960-4 0  9991,2 45201  53.0539 128.6704 0001328  96.3657 263.7483 15.06397792319608
STARLINK-1209,45206,53.0535,0.0002745,15.33961881,462.12756394779535,465.8839003077337,1 45206U 20012AE  25331.28761632  .00084879  00000+0  25295-2 0  9991,2 45206  53.0535  99.1373 0002745 289.2762  70.7942 15.33961881319115
STARLINK-1210,45207,53.0213,0.0005808,15.632643,374.31112448404656,382.1593264611556,1 45207U 20012AF  25330.51655415  .00136734  00000+0  14441-2 0  9997,2 45207  53.0213  59.6386 0005808 134.7699 225.3787 15.63264300320550
STARLINK-1231,45212,53.0509,0.0007129,15.13914682,519.3547310565391,529.1961907432897,1 45212U 20012AL  25330.66237043  .00028636  00000+0  15723-2 0  9997,2 45212  53.0509 126.2265 0007129 125.9719 234.1935 15.13914682319588
STARLINK-1271,45217,53.0539,0.0001358,15.06392201,546.2949952729577,548.175926433325,1 45217U 20012AR  25330.74929075 -.00000228  00000+0  36057-5 0  9998,2 45217  53.0539 128.7361 0001358  92.3843 267.7302 15.06392201319605
STARLINK-1191,45222,53.0556,0.0001823,15.06395288,545.9635059024467,548.4884932520927,1 45222U 20012AW  25330.62581819 -.00000537  00000+0 -17134-4 0  9999,2 45222  53.0556 109.2911 0001823 108.6811 251.4377 15.06395288319866
STARLINK-1212,45223,53.0544,0.0001432,15.06395085,546.2349096757116,548.2183338169789,1 45223U 20012AX  25330.64432147 -.00000620  00000+0 -22720-4 0  9991,2 45223  53.0544 109.8631 0001432  87.5425 272.5728 15.06395085319860
STARLINK-1215,45225,53.0544,0.0001319,15.06400212,546.2974547997974,548.1243615779777,1 45225U 20012AZ  25330.66634646 -.00001279  00000+0 -67003-4 0  9997,2 45225  53.0544 109.1072 0001319  87.4967 272.6173 15.06400212319828
STARLINK-1221,45227,53.0684,0.0004808,15.37824864,449.25852851971194,455.82691013781914,1 45227U 20012BB  25331.17018700  .00015544  00000+0  42152-3 0  9998,2 45227  53.0684  33.9124 0004808  50.4040 309.7386 15.37824864320912
STARLINK-1222,45228,53.0535,0.0001954,15.10649706,532.8666905668497,535.5680386525391,1 45228U 20012BC  25331.33336806  .00110456  00000+0  65182-2 0  9992,2 45228  53.0535 106.0905 0001954 131.3801  79.2237 15.10649706  5757
STARLINK-1226,45229,53.0548,0.0001444,15.06394602,546.2280793594855,548.2281248009667,1 45229U 20012BD  25330.66267185 -.00000774  00000+0 -33085-4 0  9993,2 45229  53.0548 109.1233 0001444  92.6974 267.4181 15.06394602319769
STARLINK-1227,45230,53.0523,0.0001602,15.06401585,546.0972600850546,548.3161402065816,1 45230U 20012BE  25330.65898702 -.00000613  00000+0 -22262-4 0  9996,2 45230  53.0523 109.1389 0001602 119.8158 240.2990 15.06401585319887
STARLINK-1246,45235,53.0532,0.0001224,15.06395725,546.3769959613383,548.0723244957626,1 45235U 20012BK  25330.80642706 -.00000306  00000+0 -16765-5 0  9990,2 45235  53.0532 148.4793 0001224  91.2534 268.8596 15.06395725319356
STARLINK-1270,45237,53.0531,0.0001215,15.06387852,546.4073556853609,548.0902244323461,1 45237U 20012BM  25330.61106810  .00001656  00000+0  13010-3 0  9997,2 45237  53.0531 109.3549 0001215  87.5353 272.5775 15.06387852319868
STARLINK-1279,45360,53.0509,0.0008698,15.38445474,444.7658678001317,456.6453223785502,1 45360U 20019A   25331.18906180  .00073653  00000+0  19031-2 0  9996,2 45360  53.0509 228.5600 0008698  99.8681 260.3304 15.38445474314806
STARLINK-1301,45361,53.0499,0.0008338,15.41264091,436.6905237193332,448.0644136473102,1 45361U 20019B   25331.30236121  .00065424  00000+0  15437-2 0  9995,2 45361  53.0499 237.2619 0008338  93.0964 267.0994 15.41264091314709
STARLINK-1306,45362,53.0408,0.0005623,15.80468544,325.3432035131609,332.88617876501576,1 45362U 20019C   25331.33336806  .00138357  00000+0  70566-3 0  9991,2 45362  53.0408 220.3229 0005623  74.9063  54.4712 15.80468544  5987
STARLINK-1262,45366,53.0551,0.000149,15.06371784,546.2661474437291,548.3299270848338,1 45366U 20019G   25330.98704289  .00000681  00000+0  64635-4 0  9998,2 45366  53.0551 267.6644 0001490  80.4191 279.6966 15.06371784314259
STARLINK-1273,45367,53.0529,0.0002398,15.06411024,545.5170806899423,548.8384616541962,1 45367U 20019H   25331.20819485  .00007875  00000+0  54680-3 0  9990,2 45367  53.0529 266.6708 0002398  84.5739 275.5524 15.06411024314286
STARLINK-1276,45368,53.0547,0.0001323,15.06392394,546.3186426325847,548.1510960292089,1 45368U 20019J   25331.24505767  .00000023  00000+0  20458-4 0  9995,2 45368  53.0547 266.5111 0001323  86.1059 274.0082 15.06392394314296
STARLINK-1277,45369,53.055,0.0001591,15.06388489,546.1450091514635,548.3486662886262,1 45369U 20019K   25331.23776834 -.00001386  00000+0 -74163-4 0  9997,2 45369  53.0550 267.1696 0001591  91.5388 268.5783 15.06388489314283
STARLINK-1281,45370,53.0542,0.0001731,15.06389873,546.0438127005509,548.4413791166553,1 45370U 20019L   25330.96861678  .00000131  00000+0  27720-4 0  9991,2 45370  53.0542 267.7535 0001731  93.6923 266.4264 15.06389873314254
STARLINK-1300,45374,53.0547,0.0002217,15.0639317,545.6971365675181,548.7678453998196,1 45374U 20019Q   25331.18976960 -.00001776  00000+0 -10033-3 0  9997,2 45374  53.0547 266.7566 0002217  95.1317 264.9925 15.06393170314285
STARLINK-1302,45375,53.0536,0.0001695,15.06381782,546.0935380023366,548.4412500919179,1 45375U 20019R   25331.27085834  .00000455  00000+0  49437-4 0  9991,2 45375  53.0536 266.3945 0001695  93.0378 267.0805 15.06381782314292
STARLINK-1304,45376,53.054,0.000127,15.06383197,546.3835313846421,548.1425829991686,1 45376U 20019S   25331.22293711 -.00002267  00000+0 -13344-3 0  9994,2 45376  53.0540 266.6088 0001270  94.2247 265.8888 15.06383197314284
STARLINK-1305,45377,53.0523,0.0007381,15.35162477,455.39038375840937,465.4854880788116,1 45377U 20019T   25331.22036810  .00051362  00000+0  14833-2 0  9991,2 45377  53.0523 259.2981 0007381  89.8918 270.2929 15.35162477314396
STARLINK-1319,45379,53.053,0.0006186,15.39910101,442.1532691816792,450.5965553195156,1 45379U 20019V   25331.22601933  .00059442  00000+0  14695-2 0  9990,2 45379  53.0530 260.8117 0006186  96.5341 263.6367 15.39910101314371
STARLINK-1266,45383,53.053,0.000166,15.0638582,546.1054028619201,548.4046330118754,1 45383U 20019Z   25331.11051588 -.00002584  00000+0 -15467-3 0  9994,2 45383  53.0530 247.1163 0001660  94.2441 265.8738 15.06385820314546
STARLINK-1267,45384,53.0532,0.0002279,15.06386439,545.674824353413,548.831417170456,1 45384U 20019AA  25330.96316648  .00010832  00000+0  74523-3 0  9999,2 45384  53.0532 248.4350 0002279  87.8289 272.2961 15.06386439314510
